PROBA-1                 
1 26958U 01049B   25064.54755582  .00003937  00000+0  27714-3 0  9997
2 26958  97.9443  53.1169 0056182 264.5704  94.9110 15.04408912273081
CUTE-1 (CO-55)          
1 27844U 03031E   25064.55396050  .00000657  00000+0  30577-3 0  9994
2 27844  98.6796  74.0591 0010840 104.9928 255.2451 14.23854449124975
CUBESAT XI-IV (CO-57)   
1 27848U 03031J   25063.75500968  .00000598  00000+0  28381-3 0  9998
2 27848  98.6823  73.3479 0010577 122.2485 237.9720 14.23208860124599
GENESIS 1               
1 29252U 06029A   25064.21830476  .00097551  00000+0  91736-3 0  9990
2 29252  64.5063 349.9480 0031143 295.5080  64.2846 15.65968944 31049
GENESIS 2               
1 31789U 07028A   25064.48766837  .00073259  00000+0  88068-3 0  9999
2 31789  64.4816  37.7761 0014879 319.9394  40.0651 15.60300873977830
APRIZESAT 4             
1 35684U 09041D   25064.57391130  .00001502  00000+0  19009-3 0  9995
2 35684  98.1984 124.3920 0045039  40.7597 319.6970 14.82708164841897
APRIZESAT 3             
1 35686U 09041F   25064.22709235  .00005034  00000+0  46132-3 0  9999
2 35686  98.1378 192.7260 0064997 173.4099 186.7990 14.93786946846309
PROBA-2                 
1 36037U 09059B   25064.47210405  .00000605  00000+0  15275-3 0  9995
2 36037  98.2354 249.6695 0012103 289.8636  70.1256 14.54445851813387
APRIZESAT 5             
1 37792U 11044E   25064.33007730  .00002308  00000+0  30839-3 0  9996
2 37792  98.2329 340.2529 0055248  71.8665 288.8551 14.79516232729426
APRIZESAT 6             
1 37793U 11044F   25064.44710166  .00001586  00000+0  23604-3 0  9992
2 37793  98.2717 319.9791 0044804 142.7684  29.6143 14.75751898727989
PROBA-V                 
1 39159U 13021A   25064.57846937  .00000168  00000+0  91647-4 0  9995
2 39159  98.3181  62.6438 0005359  71.3356 288.8405 14.23443620614448
APRIZESAT 7             
1 39416U 13066A   25064.41647987  .00003732  00000+0  39222-3 0  9997
2 39416  97.7093  21.9096 0036259 327.0191  32.8765 14.89565412611391
APRIZESAT 8             
1 39425U 13066K   25064.56703752  .00002582  00000+0  29570-3 0  9993
2 39425  97.7652  15.8519 0048334  29.2632 331.1275 14.85980942610038
BUGSAT-1 (TITA)         
1 40014U 14033E   25064.53761048  .00007066  00000+0  44260-3 0  9998
2 40014  98.0865 125.8820 0031275 335.8753  24.1008 15.09307784584999
SAUDISAT 4              
1 40016U 14033G   25064.48855223  .00002035  00000+0  28119-3 0  9999
2 40016  97.6925 224.0477 0046326 157.4488 202.8774 14.78422123576793
APRIZESAT 9             
1 40018U 14033J   25064.39131678  .00001657  00000+0  25627-3 0  9992
2 40018  97.8362 206.2791 0066212 267.5823  91.7804 14.73139658574515
APRIZESAT 10            
1 40019U 14033K   25064.35576211  .00001174  00000+0  19519-3 0  9992
2 40019  97.8995 198.8276 0079465 331.8572  27.8350 14.69942964573356
TECHDEMOSAT-1 (TDS-1)   
1 40076U 14037H   25064.42474698  .00014712  00000+0  10963-2 0  9998
2 40076  98.3349  10.4701 0010251  53.3358 306.8806 15.02979259577564
TECHNOSAT               
1 42829U 17042E   25064.46522245  .00006636  00000+0  52901-3 0  9996
2 42829  97.3900 237.8052 0011993 248.6210 111.3735 15.00587276416304
FLYING LAPTOP           
1 42831U 17042G   25064.55902704  .00004997  00000+0  42769-3 0  9990
2 42831  97.3973 237.0440 0010323 275.8855  84.1191 14.97971647416221
HAWK-A                  
1 43765U 18099H   25064.58124480  .00006743  00000+0  43066-3 0  9992
2 43765  97.4587 119.9779 0012552 105.2298 255.0320 15.08908702341973
HAWK-B                  
1 43794U 18099AN  25064.58810640  .00006660  00000+0  43045-3 0  9999
2 43794  97.4584 119.9680 0012410 106.5341 253.7252 15.08475824341961
HAWK-C                  
1 43799U 18099AT  25064.38353680  .00007603  00000+0  48679-3 0  9994
2 43799  97.4586 119.6798 0012481 105.4428 254.8180 15.08775248342682
SALSAT                  
1 46495U 20068K   25064.48310135  .00013644  00000+0  62751-3 0  9997
2 46495  97.8521  38.2754 0013789 128.6364 231.6107 15.20390462243910
HAWK-2C                 
1 47502U 21006CT  25064.38528369  .00010118  00000+0  38788-3 0  9995
2 47502  97.2941 113.7261 0009584  79.7047 280.5272 15.26654916227780
HAWK-2A                 
1 47505U 21006CW  25064.58210635  .00007473  00000+0  28756-3 0  9998
2 47505  97.2996 114.3236 0009206  80.8163 279.4117 15.26629722227811
HAWK-2B                 
1 47508U 21006CZ  25064.58230872  .00009779  00000+0  37485-3 0  9996
2 47508  97.2857 113.4515 0009877  80.9441 279.2915 15.26665268227813
HAWK-3B                 
1 48931U 21059BE  25064.38095916  .00025890  00000+0  63349-3 0  9991
2 48931  97.6546 223.8747 0009019 233.0925 126.9495 15.40730002205083
HAWK-3C                 
1 48948U 21059BX  25064.44566759  .00025893  00000+0  63365-3 0  9995
2 48948  97.6792 228.4137 0009672 236.8486 123.1832 15.40720242205096
HAWK-3A                 
1 48957U 21059CG  25064.44550041  .00025228  00000+0  61745-3 0  9994
2 48957  97.6671 226.1893 0009752 230.2351 129.8036 15.40721203205091
HAWK-4B                 
1 52165U 22033J   25064.24581259  .00071226  00000+0  79799-3 0  9993
2 52165  97.2982 156.5303 0003852  75.5065 284.6620 15.62456827163720
HAWK-4A                 
1 52167U 22033L   25064.24538607  .00067900  00000+0  76103-3 0  9994
2 52167  97.2920 155.8046 0003485  78.6575 281.5075 15.62460427163723
HAWK-4C                 
1 52170U 22033P   25064.18127148  .00073778  00000+0  82627-3 0  9993
2 52170  97.2978 156.4320 0004498  61.2257 298.9452 15.62454214163719
HAWK-5C                 
1 52754U 22057Y   25064.32570892  .00019387  00000+0  60262-3 0  9998
2 52754  97.6007 197.4554 0006062 315.7876  44.2880 15.33365511154098
HAWK-5B                 
1 52756U 22057AA  25064.32557029  .00020050  00000+0  62299-3 0  9998
2 52756  97.5994 195.8764 0006585 310.0386  50.0278 15.33367495154092
HAWK-5A                 
1 52757U 22057AB  25064.32533768  .00019654  00000+0  61080-3 0  9998
2 52757  97.6004 196.6619 0006887 311.9108  48.1546 15.33364760154099
HAWK-6B                 
1 55324U 23011A   25064.50542260  .00008455  00000+0  43303-3 0  9994
2 55324  40.5149 192.7047 0000654 302.8917  57.1828 15.16601366116519
HAWK-6C                 
1 55326U 23011C   25064.50490378  .00008485  00000+0  43443-3 0  9996
2 55326  40.4831 190.5714 0001075 229.3233 130.7480 15.16604288116526
HAWK-6A                 
1 55327U 23011D   25064.50488339  .00008541  00000+0  43736-3 0  9999
2 55327  40.4995 191.6718 0000690 187.4290 172.6507 15.16598766116521
HAWK-7A                 
1 56191U 23054P   25064.61357453  .00010771  00000+0  42857-3 0  9991
2 56191  97.3396 316.5381 0005770 311.9198  48.1548 15.25428517105487
HAWK-7B                 
1 56193U 23054R   25064.61352702  .00010821  00000+0  43047-3 0  9993
2 56193  97.3299 314.9224 0006999 322.8691  37.2062 15.25424793105484
HAWK-7C                 
1 56200U 23054Y   25064.61337580  .00010808  00000+0  42996-3 0  9996
2 56200  97.3301 315.7291 0006092 324.3594  35.7237 15.25429504105485
